CCSDS_OMM_VERS = 2.0
CREATION_DATE  = 
ORIGINATOR     = 

OBJECT_NAME    = SEASAT 1
OBJECT_ID      = 1978-064A
CENTER_NAME    = EARTH
REF_FRAME      = TEME
TIME_SYSTEM    = UTC
MEAN_ELEMENT_THEORY = SGP/SGP4

EPOCH          = 2026-01-07T21:36:04.827168
MEAN_MOTION    = 14.46096084
ECCENTRICITY   = .00011745
INCLINATION    = 108.0150
RA_OF_ASC_NODE = 357.9236
ARG_OF_PERICENTER = 268.6264
MEAN_ANOMALY   = 91.4747

EPHEMERIS_TYPE = 0
CLASSIFICATION_TYPE = U
NORAD_CAT_ID   = 10967
ELEMENT_SET_NO = 999
REV_AT_EPOCH   = 49772
BSTAR          = .14580663E-3
MEAN_MOTION_DOT = .384E-5
MEAN_MOTION_DDOT = 0

CCSDS_OMM_VERS = 2.0
CREATION_DATE  = 
ORIGINATOR     = 

OBJECT_NAME    = SL-14 R/B
OBJECT_ID      = 1979-011B
CENTER_NAME    = EARTH
REF_FRAME      = TEME
TIME_SYSTEM    = UTC
MEAN_ELEMENT_THEORY = SGP/SGP4

EPOCH          = 2026-01-07T21:07:39.851904
MEAN_MOTION    = 14.91812559
ECCENTRICITY   = .00146533
INCLINATION    = 82.5251
RA_OF_ASC_NODE = 154.2524
ARG_OF_PERICENTER = 259.9227
MEAN_ANOMALY   = 100.0339

EPHEMERIS_TYPE = 0
CLASSIFICATION_TYPE = U
NORAD_CAT_ID   = 11267
ELEMENT_SET_NO = 999
REV_AT_EPOCH   = 51971
BSTAR          = .71374951E-4
MEAN_MOTION_DOT = .746E-5
MEAN_MOTION_DDOT = 0

CCSDS_OMM_VERS = 2.0
CREATION_DATE  = 
ORIGINATOR     = 

OBJECT_NAME    = SL-8 R/B
OBJECT_ID      = 1979-089B
CENTER_NAME    = EARTH
REF_FRAME      = TEME
TIME_SYSTEM    = UTC
MEAN_ELEMENT_THEORY = SGP/SGP4

EPOCH          = 2026-01-07T21:59:41.456256
MEAN_MOTION    = 14.42301553
ECCENTRICITY   = .00151795
INCLINATION    = 74.0671
RA_OF_ASC_NODE = 203.5307
ARG_OF_PERICENTER = 27.6907
MEAN_ANOMALY   = 332.5054

EPHEMERIS_TYPE = 0
CLASSIFICATION_TYPE = U
NORAD_CAT_ID   = 11574
ELEMENT_SET_NO = 999
REV_AT_EPOCH   = 42734
BSTAR          = .83455065E-4
MEAN_MOTION_DOT = .249E-5
MEAN_MOTION_DDOT = 0

CCSDS_OMM_VERS = 2.0
CREATION_DATE  = 
ORIGINATOR     = 

OBJECT_NAME    = SL-14 R/B
OBJECT_ID      = 1980-005B
CENTER_NAME    = EARTH
REF_FRAME      = TEME
TIME_SYSTEM    = UTC
MEAN_ELEMENT_THEORY = SGP/SGP4

EPOCH          = 2026-01-07T23:42:16.538688
MEAN_MOTION    = 14.90831463
ECCENTRICITY   = .00160642
INCLINATION    = 82.5141
RA_OF_ASC_NODE = 4.8016
ARG_OF_PERICENTER = 11.9191
MEAN_ANOMALY   = 348.2404

EPHEMERIS_TYPE = 0
CLASSIFICATION_TYPE = U
NORAD_CAT_ID   = 11672
ELEMENT_SET_NO = 999
REV_AT_EPOCH   = 46744
BSTAR          = .67415254E-4
MEAN_MOTION_DOT = .69E-5
MEAN_MOTION_DDOT = 0

CCSDS_OMM_VERS = 2.0
CREATION_DATE  = 
ORIGINATOR     = 

OBJECT_NAME    = SL-8 R/B
OBJECT_ID      = 1981-003B
CENTER_NAME    = EARTH
REF_FRAME      = TEME
TIME_SYSTEM    = UTC
MEAN_ELEMENT_THEORY = SGP/SGP4

EPOCH          = 2026-01-07T22:57:18.055872
MEAN_MOTION    = 15.08143826
ECCENTRICITY   = .02739977
INCLINATION    = 82.9383
RA_OF_ASC_NODE = 346.0764
ARG_OF_PERICENTER = 30.3651
MEAN_ANOMALY   = 331.3129

EPHEMERIS_TYPE = 0
CLASSIFICATION_TYPE = U
NORAD_CAT_ID   = 12139
ELEMENT_SET_NO = 999
REV_AT_EPOCH   = 30551
BSTAR          = .58523815E-3
MEAN_MOTION_DOT = .22174E-3
MEAN_MOTION_DDOT = 0

CCSDS_OMM_VERS = 2.0
CREATION_DATE  = 
ORIGINATOR     = 

OBJECT_NAME    = SL-3 R/B
OBJECT_ID      = 1981-046B
CENTER_NAME    = EARTH
REF_FRAME      = TEME
TIME_SYSTEM    = UTC
MEAN_ELEMENT_THEORY = SGP/SGP4

EPOCH          = 2026-01-07T22:42:30.833280
MEAN_MOTION    = 15.40269245
ECCENTRICITY   = .00181351
INCLINATION    = 81.2327
RA_OF_ASC_NODE = 2.5698
ARG_OF_PERICENTER = 226.8195
MEAN_ANOMALY   = 133.1532

EPHEMERIS_TYPE = 0
CLASSIFICATION_TYPE = U
NORAD_CAT_ID   = 12465
ELEMENT_SET_NO = 999
REV_AT_EPOCH   = 42907
BSTAR          = .26216365E-3
MEAN_MOTION_DOT = .10643E-3
MEAN_MOTION_DDOT = 0

CCSDS_OMM_VERS = 2.0
CREATION_DATE  = 
ORIGINATOR     = 

OBJECT_NAME    = SL-3 R/B
OBJECT_ID      = 1981-103B
CENTER_NAME    = EARTH
REF_FRAME      = TEME
TIME_SYSTEM    = UTC
MEAN_ELEMENT_THEORY = SGP/SGP4

EPOCH          = 2026-01-07T22:03:43.214688
MEAN_MOTION    = 15.20606353
ECCENTRICITY   = .00140382
INCLINATION    = 81.1594
RA_OF_ASC_NODE = 284.6885
ARG_OF_PERICENTER = 125.0476
MEAN_ANOMALY   = 235.2074

EPHEMERIS_TYPE = 0
CLASSIFICATION_TYPE = U
NORAD_CAT_ID   = 12904
ELEMENT_SET_NO = 999
REV_AT_EPOCH   = 96399
BSTAR          = .25905559E-3
MEAN_MOTION_DOT = .5717E-4
MEAN_MOTION_DDOT = 0

CCSDS_OMM_VERS = 2.0
CREATION_DATE  = 
ORIGINATOR     = 

OBJECT_NAME    = SL-3 R/B
OBJECT_ID      = 1982-013B
CENTER_NAME    = EARTH
REF_FRAME      = TEME
TIME_SYSTEM    = UTC
MEAN_ELEMENT_THEORY = SGP/SGP4

EPOCH          = 2026-01-07T19:44:58.383744
MEAN_MOTION    = 15.21353327
ECCENTRICITY   = .00233976
INCLINATION    = 81.1727
RA_OF_ASC_NODE = 232.0743
ARG_OF_PERICENTER = 27.1151
MEAN_ANOMALY   = 333.1296

EPHEMERIS_TYPE = 0
CLASSIFICATION_TYPE = U
NORAD_CAT_ID   = 13068
ELEMENT_SET_NO = 999
REV_AT_EPOCH   = 39509
BSTAR          = .19597171E-3
MEAN_MOTION_DOT = .4447E-4
MEAN_MOTION_DDOT = 0

CCSDS_OMM_VERS = 2.0
CREATION_DATE  = 
ORIGINATOR     = 

OBJECT_NAME    = SL-3 R/B
OBJECT_ID      = 1982-039B
CENTER_NAME    = EARTH
REF_FRAME      = TEME
TIME_SYSTEM    = UTC
MEAN_ELEMENT_THEORY = SGP/SGP4

EPOCH          = 2026-01-07T21:17:43.570176
MEAN_MOTION    = 15.09711684
ECCENTRICITY   = .00297117
INCLINATION    = 81.1691
RA_OF_ASC_NODE = 286.0107
ARG_OF_PERICENTER = 163.8036
MEAN_ANOMALY   = 196.4146

EPHEMERIS_TYPE = 0
CLASSIFICATION_TYPE = U
NORAD_CAT_ID   = 13154
ELEMENT_SET_NO = 999
REV_AT_EPOCH   = 37246
BSTAR          = .16427109E-3
MEAN_MOTION_DOT = .2698E-4
MEAN_MOTION_DDOT = 0

CCSDS_OMM_VERS = 2.0
CREATION_DATE  = 
ORIGINATOR     = 

OBJECT_NAME    = SL-3 R/B
OBJECT_ID      = 1982-079B
CENTER_NAME    = EARTH
REF_FRAME      = TEME
TIME_SYSTEM    = UTC
MEAN_ELEMENT_THEORY = SGP/SGP4

EPOCH          = 2026-01-07T21:10:28.658496
MEAN_MOTION    = 15.23959886
ECCENTRICITY   = .00259301
INCLINATION    = 81.1461
RA_OF_ASC_NODE = 264.8402
ARG_OF_PERICENTER = 14.5402
MEAN_ANOMALY   = 345.6571

EPHEMERIS_TYPE = 0
CLASSIFICATION_TYPE = U
NORAD_CAT_ID   = 13403
ELEMENT_SET_NO = 999
REV_AT_EPOCH   = 36843
BSTAR          = .19646653E-3
MEAN_MOTION_DOT = .4823E-4
MEAN_MOTION_DDOT = 0

CCSDS_OMM_VERS = 2.0
CREATION_DATE  = 
ORIGINATOR     = 

OBJECT_NAME    = SL-14 R/B
OBJECT_ID      = 1982-092B
CENTER_NAME    = EARTH
REF_FRAME      = TEME
TIME_SYSTEM    = UTC
MEAN_ELEMENT_THEORY = SGP/SGP4

EPOCH          = 2026-01-07T22:35:47.755680
MEAN_MOTION    = 14.86586692
ECCENTRICITY   = .00212864
INCLINATION    = 82.5668
RA_OF_ASC_NODE = 198.2059
ARG_OF_PERICENTER = 139.6134
MEAN_ANOMALY   = 334.0535

EPHEMERIS_TYPE = 0
CLASSIFICATION_TYPE = U
NORAD_CAT_ID   = 13553
ELEMENT_SET_NO = 999
REV_AT_EPOCH   = 31990
BSTAR          = .57656726E-4
MEAN_MOTION_DOT = .538E-5
MEAN_MOTION_DDOT = 0

CCSDS_OMM_VERS = 2.0
CREATION_DATE  = 
ORIGINATOR     = 

OBJECT_NAME    = SL-3 R/B
OBJECT_ID      = 1983-010B
CENTER_NAME    = EARTH
REF_FRAME      = TEME
TIME_SYSTEM    = UTC
MEAN_ELEMENT_THEORY = SGP/SGP4

EPOCH          = 2026-01-07T21:24:25.685280
MEAN_MOTION    = 15.44302899
ECCENTRICITY   = .00161874
INCLINATION    = 81.1033
RA_OF_ASC_NODE = 76.6780
ARG_OF_PERICENTER = 256.9349
MEAN_ANOMALY   = 103.0088

EPHEMERIS_TYPE = 0
CLASSIFICATION_TYPE = U
NORAD_CAT_ID   = 13819
ELEMENT_SET_NO = 999
REV_AT_EPOCH   = 34855
BSTAR          = .27184395E-3
MEAN_MOTION_DOT = .1261E-3
MEAN_MOTION_DDOT = 0

CCSDS_OMM_VERS = 2.0
CREATION_DATE  = 
ORIGINATOR     = 

OBJECT_NAME    = SL-3 R/B
OBJECT_ID      = 1983-075B
CENTER_NAME    = EARTH
REF_FRAME      = TEME
TIME_SYSTEM    = UTC
MEAN_ELEMENT_THEORY = SGP/SGP4

EPOCH          = 2026-01-07T23:15:02.150496
MEAN_MOTION    = 15.36781811
ECCENTRICITY   = .00245605
INCLINATION    = 97.6118
RA_OF_ASC_NODE = 10.3445
ARG_OF_PERICENTER = 87.1571
MEAN_ANOMALY   = 273.2483

EPHEMERIS_TYPE = 0
CLASSIFICATION_TYPE = U
NORAD_CAT_ID   = 14208
ELEMENT_SET_NO = 999
REV_AT_EPOCH   = 32082
BSTAR          = .26988683E-3
MEAN_MOTION_DOT = .9712E-4
MEAN_MOTION_DDOT = 0

CCSDS_OMM_VERS = 2.0
CREATION_DATE  = 
ORIGINATOR     = 

OBJECT_NAME    = COSMOS 1536
OBJECT_ID      = 1984-013A
CENTER_NAME    = EARTH
REF_FRAME      = TEME
TIME_SYSTEM    = UTC
MEAN_ELEMENT_THEORY = SGP/SGP4

EPOCH          = 2026-01-07T21:29:13.049952
MEAN_MOTION    = 15.22923084
ECCENTRICITY   = .00153652
INCLINATION    = 82.5460
RA_OF_ASC_NODE = 168.2184
ARG_OF_PERICENTER = 133.3171
MEAN_ANOMALY   = 226.9350

EPHEMERIS_TYPE = 0
CLASSIFICATION_TYPE = U
NORAD_CAT_ID   = 14699
ELEMENT_SET_NO = 999
REV_AT_EPOCH   = 26336
BSTAR          = .26852391E-3
MEAN_MOTION_DOT = .6351E-4
MEAN_MOTION_DDOT = 0

CCSDS_OMM_VERS = 2.0
CREATION_DATE  = 
ORIGINATOR     = 

OBJECT_NAME    = SL-14 R/B
OBJECT_ID      = 1984-027B
CENTER_NAME    = EARTH
REF_FRAME      = TEME
TIME_SYSTEM    = UTC
MEAN_ELEMENT_THEORY = SGP/SGP4

EPOCH          = 2026-01-07T21:15:55.486368
MEAN_MOTION    = 14.85908318
ECCENTRICITY   = .00181324
INCLINATION    = 82.5432
RA_OF_ASC_NODE = 302.0383
ARG_OF_PERICENTER = 169.8240
MEAN_ANOMALY   = 190.3348

EPHEMERIS_TYPE = 0
CLASSIFICATION_TYPE = U
NORAD_CAT_ID   = 14820
ELEMENT_SET_NO = 999
REV_AT_EPOCH   = 23860
BSTAR          = .60678216E-4
MEAN_MOTION_DOT = .555E-5
MEAN_MOTION_DDOT = 0

